{
    "links": {
        "self": "http://www.neowsapp.com/rest/v1/neo/3476526?api_key=iIulBulltgU6a56xZRHN4H3l9WmuAYTsLGpBGhQ2"
    },
    "id": "3476526",
    "neo_reference_id": "3476526",
    "name": "(2009 VZ39)",
    "designation": "2009 VZ39",
    "nasa_jpl_url": "http://ssd.jpl.nasa.gov/sbdb.cgi?sstr=3476526",
    "absolute_magnitude_h": 28.067,
    "estimated_diameter": {
        "kilometers": {
            "estimated_diameter_min": 0.0064737359,
            "estimated_diameter_max": 0.0144757135
        },
        "meters": {
            "estimated_diameter_min": 6.4737358774,
            "estimated_diameter_max": 14.4757134903
        },
        "miles": {
            "estimated_diameter_min": 0.0040225917,
            "estimated_diameter_max": 0.0089947886
        },
        "feet": {
            "estimated_diameter_min": 21.2392916161,
            "estimated_diameter_max": 47.4924998477
        }
    },
    "is_potentially_hazardous_asteroid": false,
    "close_approach_data": [
        {
            "close_approach_date": "2009-11-12",
            "close_approach_date_full": "2009-Nov-12 18:46",
            "epoch_date_close_approach": 1258051560000,
            "relative_velocity": {
                "kilometers_per_second": "7.7714024567",
                "kilometers_per_hour": "27977.0488441077",
                "miles_per_hour": "17383.8501553846"
            },
            "miss_distance": {
                "astronomical": "0.0017422501",
                "lunar": "0.6777352889",
                "kilometers": "260636.903967287",
                "miles": "161952.2622990806"
            },
            "orbiting_body": "Earth"
        },
        {
            "close_approach_date": "2009-11-13",
            "close_approach_date_full": "2009-Nov-13 08:27",
            "epoch_date_close_approach": 1258100820000,
            "relative_velocity": {
                "kilometers_per_second": "7.5420122802",
                "kilometers_per_hour": "27151.2442085863",
                "miles_per_hour": "16870.7272694963"
            },
            "miss_distance": {
                "astronomical": "0.001397867",
                "lunar": "0.543770263",
                "kilometers": "209117.92574329",
                "miles": "129939.853665802"
            },
            "orbiting_body": "Moon"
        }
    ],
    "orbital_data": {
        "orbit_id": "9",
        "orbit_determination_date": "2017-04-06 08:59:12",
        "first_observation_date": "2009-11-10",
        "last_observation_date": "2009-11-10",
        "data_arc_in_days": null,
        "observations_used": 8,
        "orbit_uncertainty": "9",
        "minimum_orbit_intersection": ".00173117",
        "jupiter_tisserand_invariant": "4.508",
        "epoch_osculation": "2455145.5",
        "eccentricity": ".3796505520995916",
        "semi_major_axis": "1.476740186496516",
        "inclination": "2.492952371274123",
        "ascending_node_longitude": "52.57045104068104",
        "orbital_period": "655.4726377749967",
        "perihelion_distance": ".9160949593854597",
        "perihelion_argument": "40.76887561841362",
        "aphelion_distance": "2.037385413607572",
        "perihelion_time": "2455182.587296709800",
        "mean_anomaly": "339.6308403340078",
        "mean_motion": ".5492220105815872",
        "equinox": "J2000",
        "orbit_class": {
            "orbit_class_type": "APO",
            "orbit_class_description": "Near-Earth asteroid orbits which cross the Earth’s orbit similar to that of 1862 Apollo",
            "orbit_class_range": "a (semi-major axis) > 1.0 AU; q (perihelion) < 1.017 AU"
        }
    },
    "is_sentry_object": false
}